1 08820U 76039A   03351.79434914 -.00000003  00000-0  10000-3 0  9859
2 08820 109.8367 244.4629 0044431 262.0020  97.5665  6.38664795388789
